#aV2015 12  9  0  0  0.00000000     288 DD+AD WGS84 FIT  NGA
## 1874 259200.00000000   300.00000000 57365 0.0000000000000
+   31     1  2  3  5  6  7  8  9 10 11 12 13 14 15 16 17 18
+         19 20 21 22 23 24 25 26 27 28 29 30 31 32  0  0  0
+          0  0  0  0  0  0  0  0  0  0  0  0  0  0  0  0  0
+          0  0  0  0  0  0  0  0  0  0  0  0  0  0  0  0  0
+          0  0  0  0  0  0  0  0  0  0  0  0  0  0  0  0  0
++         2  2  2  2  2  2  2  2  2  2  2  2  2  2  2  2  2
++         2  2  2  2  2  2  2  2  2  2  2  2  2  2  0  0  0
++         0  0  0  0  0  0  0  0  0  0  0  0  0  0  0  0  0
++         0  0  0  0  0  0  0  0  0  0  0  0  0  0  0  0  0
++         0  0  0  0  0  0  0  0  0  0  0  0  0  0  0  0  0
%c cc cc ccc ccc cccc cccc cccc cccc ccccc ccccc ccccc ccccc
%c cc cc ccc ccc cccc cccc cccc cccc ccccc ccccc ccccc ccccc
%f  0.0000000  0.000000000  0.00000000000  0.000000000000000
%f  0.0000000  0.000000000  0.00000000000  0.000000000000000
%i    0    0    0    0      0      0      0      0         0
%i    0    0    0    0      0      0      0      0         0
/*      NGA, ST. LOUIS,MO.                                  
/*   EPHEMERIS COMPUTED FROM 2 DAYS OF DATA                 
/*   EPOCHA v2.4 SMOOTHER                                   
/*   G1762 IERS2010 SATAF SATAPC                            
*  2015 12  9  2 15  0.00000000
P  1 -18322.009822 -13627.174952 -13813.634010      6.220242                    
V  1  17367.364974   1606.962645 -24551.551099      0.008595                    
P  2  -5198.852412  15073.854961  21607.829665    597.528372                    
V  2 -26178.018584  -4847.107537  -3402.748214      0.006915                    
P  3 -12781.859135 -22121.125693   7222.845278      4.788339                    
V  3   -327.828889  -9573.226478 -29920.094812     -0.049384                    
P  5    370.318980  24248.961852  10530.199035   -166.883936                    
V  5  -7314.797278 -11823.894496  27498.794636      0.036809                    
P  6 -18789.025239   8220.229461  16870.189134    108.949333                    
V  6 -20666.386429  -5905.717775 -20148.902157      0.064912                    
P  7 -26132.327450  -5821.617041   -153.143852    477.981266                    
V  7    159.234539  -2274.225292  31663.420640     -0.012318                    
P  8   -622.790827 -18953.575117 -18544.536900    -15.479628                    
V  8  16662.814712 -16851.391972  16613.214605     -0.014458                    
P  9 -18310.076356    368.660926  19226.268480     24.657190                    
V  9  15032.720828 -19335.268775  14666.925006      0.076510                    
P 10  13597.662085  -7178.406048 -21648.698816     39.372875                    
V 10   9137.332176  25951.116195  -2905.633063      0.067963                    
P 11 -13785.366191 -13229.207430 -19025.817789   -620.686916                    
V 11  22688.535566  -5592.893256 -12862.181202     -0.021838                    
P 12  10263.292780  24062.284315   5112.846340    351.814017                    
V 12    171.448820   6778.811014 -31381.598294      0.030004                    
P 13  -9002.236489  20912.974201 -13891.871899   -170.028541                    
V 13 -14056.925457  10326.740712  24803.112724     -0.026929                    
P 14  21391.797670 -13523.728402  -7556.543233     16.654813                    
V 14  -5276.571727   8867.628579 -29966.963667     -0.023845                    
P 15   4488.849749  17567.026869 -19413.126201   -286.220641                    
V 15 -16596.285808  18263.893920  13106.797317     -0.019360                    
P 16   1308.563215 -23841.639272  11135.132881    -59.112919                    
V 16   5482.968474  13403.876522  28214.198528      0.034795                    
P 17 -20937.668399  13842.713899  -8033.775509   -196.073602                    
V 17   5662.329926  -9377.437240 -29953.340161     -0.009000                    
P 18  17287.861810   5721.315322 -18910.538991    460.836660                    
V 18   7083.259890  24192.185574  13160.623937      0.038217                    
P 19 -21080.276004   4873.160210 -15938.885787   -523.549802                    
V 19  13367.300740 -14412.037118 -21983.096384     -0.003771                    
P 20  13234.514969  22592.741073  -4394.773487    376.957040                    
V 20  -1437.057478   6513.269398  30329.635912      0.028043                    
P 21  26370.702474   2701.132820  -2675.311856   -498.365872                    
V 21   3577.909945   4097.950111  30736.456404     -0.022771                    
P 22  13082.881990  -9819.567248 -20665.796212    417.858388                    
V 22  10041.844067  25042.272267  -5657.491703      0.033854                    
P 23 -10551.335512 -11535.839750  21621.304278   -148.707525                    
V 23  18261.725774 -20065.333550  -2238.929439     -0.020250                    
P 24  15933.578327  14347.141374 -15826.982629     -9.025593                    
V 24 -20020.401886  -1582.584663 -21464.346965     -0.006130                    
P 25  15945.618356  14323.477062  15698.572641    -79.860284                    
V 25   4934.302827  19448.844311 -22442.468151     -0.060272                    
P 26   7645.769724 -17511.345700  18443.748684   -156.788538                    
V 26   9011.214805  21669.438747  16864.091296     -0.170764                    
P 27   9221.457477 -22187.654472 -11195.742066     42.708728                    
V 27  11068.306092  -9201.067703  27534.609341      0.032886                    
P 28 -13305.104360   5502.702842 -21683.834826    486.969553                    
V 28  -7398.804933 -28048.376868  -2572.454769      0.026819                    
P 29  16471.973504   3140.553431  20604.412054    647.574124                    
V 29 -17706.310602  19182.514275  11274.749808      0.013854                    
P 30 -24244.290356   1289.283923 -10863.831631     68.340445                    
V 30 -12597.749913  -6146.609705  27304.772864      0.052819                    
P 31  17994.692564  -8321.373027  17969.513190    292.048500                    
V 31  21535.332260   6286.024789 -18438.592443     -0.015148                    
P 32  -4523.996838 -26333.291747  -2765.722901     41.990513                    
V 32   3517.194344   2605.237591 -30829.491260      0.120034                    
EOF
